{"type": "FeatureCollection", "features": [ {"type": "Feature", "properties": {"norad_id": 41335, "name": "SENTINEL-3A", "group": "resource", "lat": 81.2149450490163, "lon": -36.60738323147366, "alt_km": 794.4717901387112, "timestamp": "2025-12-03T06:58:42.898653+00:00", "meta": {"OBJECT_NAME": "SENTINEL-3A", "OBJECT_ID": "2016-011A", "EPOCH": "2025-12-02T20:28:02.968896", "MEAN_MOTION": 14.2674031, "ECCENTRICITY": 9.99e-05, "INCLINATION": 98.622, "RA_OF_ASC_NODE": 42.008, "ARG_OF_PERICENTER": 91.2127, "MEAN_ANOMALY": 268.9167, "EPHEMERIS_TYPE": 0, "CLASSIFICATION_TYPE": "U", "NORAD_CAT_ID": 41335, "ELEMENT_SET_NO": 999, "REV_AT_EPOCH": 51006, "BSTAR": 0.00010212, "MEAN_MOTION_DOT": 2.04e-06, "MEAN_MOTION_DDOT": 0}, "tle": {"line1": "1 41335U 16011A   25336.85281214  .00000204  00000+0  10212-3 0  9999", "line2": "2 41335  98.6220  42.0080 0000999  91.2127 268.9167 14.26740310510067"}}, "geometry": {"type": "Point", "coordinates": [-36.60738323147366, 81.2149450490163]}}, {"type": "Feature", "properties": {"norad_id": 41556, "name": "ZIYUAN 3-2 (ZY 3-2)", "group": "resource", "lat": -45.14406462629918, "lon": -135.89848040916198, "alt_km": 504.5720353446959, "timestamp": "2025-12-03T06:58:42.898664+00:00", "meta": {"OBJECT_NAME": "ZIYUAN 3-2 (ZY 3-2)", "OBJECT_ID": "2016-033A", "EPOCH": "2025-12-02T20:31:01.880832", "MEAN_MOTION": 15.21273018, "ECCENTRICITY": 0.0012439, "INCLINATION": 97.4061, "RA_OF_ASC_NODE": 51.1847, "ARG_OF_PERICENTER": 287.7806, "MEAN_ANOMALY": 72.2072, "EPHEMERIS_TYPE": 0, "CLASSIFICATION_TYPE": "U", "NORAD_CAT_ID": 41556, "ELEMENT_SET_NO": 999, "REV_AT_EPOCH": 52813, "BSTAR": 0.00040319, "MEAN_MOTION_DOT": 8.964e-05, "MEAN_MOTION_DDOT": 0}, "tle": {"line1": "1 41556U 16033A   25336.85488288  .00008964  00000+0  40319-3 0  9990", "line2": "2 41556  97.4061  51.1847 0012439 287.7806  72.2072 15.21273018528132"}}, "geometry": {"type": "Point", "coordinates": [-135.89848040916198, -45.14406462629918]}}, {"type": "Feature", "properties": {"norad_id": 41599, "name": "CARTOSAT-2C", "group": "resource", "lat": -62.525246212120706, "lon": -159.9935626590172, "alt_km": 522.1894591576583, "timestamp": "2025-12-03T06:58:42.898674+00:00", "meta": {"OBJECT_NAME": "CARTOSAT-2C", "OBJECT_ID": "2016-040A", "EPOCH": "2025-12-02T20:25:33.159072", "MEAN_MOTION": 15.19135003, "ECCENTRICITY": 0.0010949, "INCLINATION": 97.4781, "RA_OF_ASC_NODE": 34.2028, "ARG_OF_PERICENTER": 95.0566, "MEAN_ANOMALY": 265.1918, "EPHEMERIS_TYPE": 0, "CLASSIFICATION_TYPE": "U", "NORAD_CAT_ID": 41599, "ELEMENT_SET_NO": 999, "REV_AT_EPOCH": 52390, "BSTAR": 3.0521e-05, "MEAN_MOTION_DOT": 5.73e-06, "MEAN_MOTION_DDOT": 0}, "tle": {"line1": "1 41599U 16040A   25336.85107823  .00000573  00000+0  30521-4 0  9991", "line2": "2 41599  97.4781  34.2028 0010949  95.0566 265.1918 15.19135003523908"}}, "geometry": {"type": "Point", "coordinates": [-159.9935626590172, -62.525246212120706]}}, {"type": "Feature", "properties": {"norad_id": 41601, "name": "SKYSAT-C1", "group": "resource", "lat": -29.269783801998344, "lon": -169.1007188464443, "alt_km": 477.18913391827846, "timestamp": "2025-12-03T06:58:42.898684+00:00", "meta": {"OBJECT_NAME": "SKYSAT-C1", "OBJECT_ID": "2016-040C", "EPOCH": "2025-12-02T15:57:43.457184", "MEAN_MOTION": 15.3230235, "ECCENTRICITY": 0.0003366, "INCLINATION": 96.9842, "RA_OF_ASC_NODE": 14.2488, "ARG_OF_PERICENTER": 40.4841, "MEAN_ANOMALY": 319.6652, "EPHEMERIS_TYPE": 0, "CLASSIFICATION_TYPE": "U", "NORAD_CAT_ID": 41601, "ELEMENT_SET_NO": 999, "REV_AT_EPOCH": 52773, "BSTAR": 0.00039124, "MEAN_MOTION_DOT": 0.00012138, "MEAN_MOTION_DDOT": 0}, "tle": {"line1": "1 41601U 16040C   25336.66508631  .00012138  00000+0  39124-3 0  9993", "line2": "2 41601  96.9842  14.2488 0003366  40.4841 319.6652 15.32302350527738"}}, "geometry": {"type": "Point", "coordinates": [-169.1007188464443, -29.269783801998344]}}, {"type": "Feature", "properties": {"norad_id": 41603, "name": "LAPAN-A3", "group": "resource", "lat": 25.516726736853162, "lon": -28.23916641683406, "alt_km": 463.6943263930407, "timestamp": "2025-12-03T06:58:42.898695+00:00", "meta": {"OBJECT_NAME": "LAPAN-A3", "OBJECT_ID": "2016-040E", "EPOCH": "2025-12-02T21:27:27.896832", "MEAN_MOTION": 15.314291, "ECCENTRICITY": 0.0010906, "INCLINATION": 97.1423, "RA_OF_ASC_NODE": 334.8101, "ARG_OF_PERICENTER": 9.9936, "MEAN_ANOMALY": 350.1521, "EPHEMERIS_TYPE": 0, "CLASSIFICATION_TYPE": "U", "NORAD_CAT_ID": 41603, "ELEMENT_SET_NO": 999, "REV_AT_EPOCH": 52475, "BSTAR": 0.00017372, "MEAN_MOTION_DOT": 5.207e-05, "MEAN_MOTION_DDOT": 0}, "tle": {"line1": "1 41603U 16040E   25336.89407288  .00005207  00000+0  17372-3 0  9996", "line2": "2 41603  97.1423 334.8101 0010906   9.9936 350.1521 15.31429100524750"}}, "geometry": {"type": "Point", "coordinates": [-28.23916641683406, 25.516726736853162]}}, {"type": "Feature", "properties": {"norad_id": 41604, "name": "BIROS", "group": "resource", "lat": 78.9748470795891, "lon": -132.04923507989173, "alt_km": 306.26943849958934, "timestamp": "2025-12-03T06:58:42.898706+00:00", "meta": {"OBJECT_NAME": "BIROS", "OBJECT_ID": "2016-040F", "EPOCH": "2025-12-02T15:25:09.678432", "MEAN_MOTION": 15.85610481, "ECCENTRICITY": 0.00025415, "INCLINATION": 97.0711, "RA_OF_ASC_NODE": 7.7018, "ARG_OF_PERICENTER": 175.5608, "MEAN_ANOMALY": 184.5687, "EPHEMERIS_TYPE": 0, "CLASSIFICATION_TYPE": "U", "NORAD_CAT_ID": 41604, "ELEMENT_SET_NO": 999, "REV_AT_EPOCH": 52712, "BSTAR": 0.00068477977, "MEAN_MOTION_DOT": 0.00167147, "MEAN_MOTION_DDOT": 0}, "tle": {"line1": "1 41604U 16040F   25336.64247313  .00167147  00000+0  68478-3 0  9996", "line2": "2 41604  97.0711   7.7018 0002541 175.5608 184.5687 15.85610481527124"}}, "geometry": {"type": "Point", "coordinates": [-132.04923507989173, 78.9748470795891]}}, {"type": "Feature", "properties": {"norad_id": 41727, "name": "GAOFEN-3", "group": "resource", "lat": -44.73941863405454, "lon": -8.554777862941359, "alt_km": 758.4373797924063, "timestamp": "2025-12-03T06:58:42.898715+00:00", "meta": {"OBJECT_NAME": "GAOFEN-3", "OBJECT_ID": "2016-049A", "EPOCH": "2025-12-02T21:11:52.975392", "MEAN_MOTION": 14.42209756, "ECCENTRICITY": 0.0001597, "INCLINATION": 98.4041, "RA_OF_ASC_NODE": 342.6199, "ARG_OF_PERICENTER": 74.0772, "MEAN_ANOMALY": 286.0593, "EPHEMERIS_TYPE": 0, "CLASSIFICATION_TYPE": "U", "NORAD_CAT_ID": 41727, "ELEMENT_SET_NO": 999, "REV_AT_EPOCH": 49035, "BSTAR": 5.1531e-05, "MEAN_MOTION_DOT": 1.26e-06, "MEAN_MOTION_DDOT": 0}, "tle": {"line1": "1 41727U 16049A   25336.88325203  .00000126  00000+0  51531-4 0  9998", "line2": "2 41727  98.4041 342.6199 0001597  74.0772 286.0593 14.42209756490356"}}, "geometry": {"type": "Point", "coordinates": [-8.554777862941359, -44.73941863405454]}}, {"type": "Feature", "properties": {"norad_id": 41771, "name": "SKYSAT-C4", "group": "resource", "lat": 0.8212623155148906, "lon": -176.95872753590382, "alt_km": 443.5502741935052, "timestamp": "2025-12-03T06:58:42.898726+00:00", "meta": {"OBJECT_NAME": "SKYSAT-C4", "OBJECT_ID": "2016-058B", "EPOCH": "2025-12-02T19:18:03.995424", "MEAN_MOTION": 15.41812114, "ECCENTRICITY": 7e-05, "INCLINATION": 96.9387, "RA_OF_ASC_NODE": 2.4785, "ARG_OF_PERICENTER": 113.2811, "MEAN_ANOMALY": 246.8511, "EPHEMERIS_TYPE": 0, "CLASSIFICATION_TYPE": "U", "NORAD_CAT_ID": 41771, "ELEMENT_SET_NO": 999, "REV_AT_EPOCH": 51514, "BSTAR": 0.00044041, "MEAN_MOTION_DOT": 0.00018597, "MEAN_MOTION_DDOT": 0}, "tle": {"line1": "1 41771U 16058B   25336.80421291  .00018597  00000+0  44041-3 0  9991", "line2": "2 41771  96.9387   2.4785 0000700 113.2811 246.8511 15.41812114515145"}}, "geometry": {"type": "Point", "coordinates": [-176.95872753590382, 0.8212623155148906]}}, {"type": "Feature", "properties": {"norad_id": 41772, "name": "SKYSAT-C5", "group": "resource", "lat": -38.380768480400285, "lon": 27.069683959770714, "alt_km": 467.9271263498804, "timestamp": "2025-12-03T06:58:42.898736+00:00", "meta": {"OBJECT_NAME": "SKYSAT-C5", "OBJECT_ID": "2016-058C", "EPOCH": "2025-12-02T09:14:57.685632", "MEAN_MOTION": 15.35361151, "ECCENTRICITY": 0.00029123, "INCLINATION": 97.0796, "RA_OF_ASC_NODE": 20.5505, "ARG_OF_PERICENTER": 122.4171, "MEAN_ANOMALY": 237.7356, "EPHEMERIS_TYPE": 0, "CLASSIFICATION_TYPE": "U", "NORAD_CAT_ID": 41772, "ELEMENT_SET_NO": 999, "REV_AT_EPOCH": 51357, "BSTAR": 0.0016477131, "MEAN_MOTION_DOT": 0.00056871, "MEAN_MOTION_DDOT": 0}, "tle": {"line1": "1 41772U 16058C   25336.38538988  .00056871  00000+0  16477-2 0  9995", "line2": "2 41772  97.0796  20.5505 0002912 122.4171 237.7356 15.35361151513575"}}, "geometry": {"type": "Point", "coordinates": [27.069683959770714, -38.380768480400285]}}, {"type": "Feature", "properties": {"norad_id": 41773, "name": "SKYSAT-C2", "group": "resource", "lat": -82.83193592052153, "lon": 81.41422971999759, "alt_km": 465.45808648375805, "timestamp": "2025-12-03T06:58:42.898746+00:00", "meta": {"OBJECT_NAME": "SKYSAT-C2", "OBJECT_ID": "2016-058D", "EPOCH": "2025-12-02T15:44:17.564640", "MEAN_MOTION": 15.36917623, "ECCENTRICITY": 0.0005118, "INCLINATION": 97.0373, "RA_OF_ASC_NODE": 1.6128, "ARG_OF_PERICENTER": 59.5929, "MEAN_ANOMALY": 300.5821, "EPHEMERIS_TYPE": 0, "CLASSIFICATION_TYPE": "U", "NORAD_CAT_ID": 41773, "ELEMENT_SET_NO": 999, "REV_AT_EPOCH": 51481, "BSTAR": 0.00039354, "MEAN_MOTION_DOT": 0.00014145, "MEAN_MOTION_DDOT": 0}, "tle": {"line1": "1 41773U 16058D   25336.65575885  .00014145  00000+0  39354-3 0  9991", "line2": "2 41773  97.0373   1.6128 0005118  59.5929 300.5821 15.36917623514816"}}, "geometry": {"type": "Point", "coordinates": [81.41422971999759, -82.83193592052153]}}]}